{
  "type": "FeatureCollection",
  "features": [
    {
      "type": "Feature",
      "properties": {
        "norad_id": 41773,
        "name": "SKYSAT-C2",
        "group": "resource",
        "lat": -2.510718122795482,
        "lon": 25.420490036554856,
        "alt_km": 454.9197611077698,
        "timestamp": "2025-12-27T04:40:45.157507+00:00",
        "meta_object_name": "SKYSAT-C2",
        "meta_object_id": "2016-058D",
        "meta_epoch": "2025-12-26T14:37:58.926720",
        "meta_mean_motion": 15.37583734,
        "meta_eccentricity": 0.0002572,
        "meta_inclination": 97.0353,
        "meta_ra_of_asc_node": 24.5495,
        "meta_arg_of_pericenter": 351.2382,
        "meta_mean_anomaly": 8.8818,
        "meta_ephemeris_type": 0,
        "meta_classification_type": "U",
        "meta_norad_cat_id": 41773,
        "meta_element_set_no": 999,
        "meta_rev_at_epoch": 51849,
        "meta_bstar": 0.00034081,
        "meta_mean_motion_dot": 0.000125,
        "meta_mean_motion_ddot": 0,
        "tle_line1": "1 41773U 16058D   25360.60970980  .00012500  00000+0  34081-3 0  9993",
        "tle_line2": "2 41773  97.0353  24.5495 0002572 351.2382   8.8818 15.37583734518496"
      },
      "geometry": {
        "type": "Point",
        "coordinates": [
          25.420490036554856,
          -2.510718122795482
        ]
      }
    },
    {
      "type": "Feature",
      "properties": {
        "norad_id": 41774,
        "name": "SKYSAT-C3",
        "group": "resource",
        "lat": -21.177720880535215,
        "lon": -148.43006916346522,
        "alt_km": 437.2011240058009,
        "timestamp": "2025-12-27T04:40:45.157517+00:00",
        "meta_object_name": "SKYSAT-C3",
        "meta_object_id": "2016-058E",
        "meta_epoch": "2025-12-26T15:22:29.771040",
        "meta_mean_motion": 15.44897562,
        "meta_eccentricity": 0.00021582,
        "meta_inclination": 96.9285,
        "meta_ra_of_asc_node": 33.7414,
        "meta_arg_of_pericenter": 106.7357,
        "meta_mean_anomaly": 253.413,
        "meta_ephemeris_type": 0,
        "meta_classification_type": "U",
        "meta_norad_cat_id": 41774,
        "meta_element_set_no": 999,
        "meta_rev_at_epoch": 51940,
        "meta_bstar": 0.00041358069,
        "meta_mean_motion_dot": 0.00019372,
        "meta_mean_motion_ddot": 0,
        "tle_line1": "1 41774U 16058E   25360.64062235  .00019372  00000+0  41358-3 0  9992",
        "tle_line2": "2 41774  96.9285  33.7414 0002158 106.7357 253.4130 15.44897562519409"
      },
      "geometry": {
        "type": "Point",
        "coordinates": [
          -148.43006916346522,
          -21.177720880535215
        ]
      }
    },
    {
      "type": "Feature",
      "properties": {
        "norad_id": 41785,
        "name": "ALSAT 1B",
        "group": "resource",
        "lat": -68.58200809200285,
        "lon": 171.95866260978696,
        "alt_km": 669.1422992666294,
        "timestamp": "2025-12-27T04:40:45.157528+00:00",
        "meta_object_name": "ALSAT 1B",
        "meta_object_id": "2016-059C",
        "meta_epoch": "2025-12-27T00:17:05.824608",
        "meta_mean_motion": 14.72091099,
        "meta_eccentricity": 0.00106981,
        "meta_inclination": 97.7812,
        "meta_ra_of_asc_node": 12.185,
        "meta_arg_of_pericenter": 63.6141,
        "meta_mean_anomaly": 296.6164,
        "meta_ephemeris_type": 0,
        "meta_classification_type": "U",
        "meta_norad_cat_id": 41785,
        "meta_element_set_no": 999,
        "meta_rev_at_epoch": 49524,
        "meta_bstar": 0.00013344689,
        "meta_mean_motion_dot": 7.93e-06,
        "meta_mean_motion_ddot": 0,
        "tle_line1": "1 41785U 16059C   25361.01187297  .00000793  00000+0  13345-3 0  9995",
        "tle_line2": "2 41785  97.7812  12.1850 0010698  63.6141 296.6164 14.72091099495243"
      },
      "geometry": {
        "type": "Point",
        "coordinates": [
          171.95866260978696,
          -68.58200809200285
        ]
      }
    },
    {
      "type": "Feature",
      "properties": {
        "norad_id": 41787,
        "name": "PATHFINDER 1",
        "group": "resource",
        "lat": 78.83632297475741,
        "lon": -40.79629629347213,
        "alt_km": 647.4921812650036,
        "timestamp": "2025-12-27T04:40:45.157538+00:00",
        "meta_object_name": "PATHFINDER 1",
        "meta_object_id": "2016-059E",
        "meta_epoch": "2025-12-26T23:23:56.844672",
        "meta_mean_motion": 14.67347016,
        "meta_eccentricity": 0.00294986,
        "meta_inclination": 97.8139,
        "meta_ra_of_asc_node": 3.088,
        "meta_arg_of_pericenter": 37.6706,
        "meta_mean_anomaly": 322.6557,
        "meta_ephemeris_type": 0,
        "meta_classification_type": "U",
        "meta_norad_cat_id": 41787,
        "meta_element_set_no": 999,
        "meta_rev_at_epoch": 49445,
        "meta_bstar": 0.00019153607,
        "meta_mean_motion_dot": 1.042e-05,
        "meta_mean_motion_ddot": 0,
        "tle_line1": "1 41787U 16059E   25360.97496348  .00001042  00000+0  19154-3 0  9993",
        "tle_line2": "2 41787  97.8139   3.0880 0029498  37.6706 322.6557 14.67347016494451"
      },
      "geometry": {
        "type": "Point",
        "coordinates": [
          -40.79629629347213,
          78.83632297475741
        ]
      }
    },
    {
      "type": "Feature",
      "properties": {
        "norad_id": 41790,
        "name": "SCATSAT 1",
        "group": "resource",
        "lat": -41.179552376051696,
        "lon": 65.24147595367211,
        "alt_km": 661.1052197992713,
        "timestamp": "2025-12-27T04:40:45.157548+00:00",
        "meta_object_name": "SCATSAT 1",
        "meta_object_id": "2016-059H",
        "meta_epoch": "2025-12-26T14:15:15.732576",
        "meta_mean_motion": 14.78980653,
        "meta_eccentricity": 0.005643,
        "meta_inclination": 98.1445,
        "meta_ra_of_asc_node": 57.4361,
        "meta_arg_of_pericenter": 84.3615,
        "meta_mean_anomaly": 276.4027,
        "meta_ephemeris_type": 0,
        "meta_classification_type": "U",
        "meta_norad_cat_id": 41790,
        "meta_element_set_no": 999,
        "meta_rev_at_epoch": 7607,
        "meta_bstar": 0.00021562,
        "meta_mean_motion_dot": 1.578e-05,
        "meta_mean_motion_ddot": 0,
        "tle_line1": "1 41790U 16059H   25360.59393209  .00001578  00000+0  21562-3 0  9997",
        "tle_line2": "2 41790  98.1445  57.4361 0056430  84.3615 276.4027 14.78980653 76074"
      },
      "geometry": {
        "type": "Point",
        "coordinates": [
          65.24147595367211,
          -41.179552376051696
        ]
      }
    },
    {
      "type": "Feature",
      "properties": {
        "norad_id": 41875,
        "name": "GOKTURK 1A",
        "group": "resource",
        "lat": -74.61107703251838,
        "lon": -75.28932182838382,
        "alt_km": 692.3166532663208,
        "timestamp": "2025-12-27T04:40:45.157559+00:00",
        "meta_object_name": "GOKTURK 1A",
        "meta_object_id": "2016-073A",
        "meta_epoch": "2025-12-27T00:06:19.193184",
        "meta_mean_motion": 14.62796567,
        "meta_eccentricity": 0.0001295,
        "meta_inclination": 98.1422,
        "meta_ra_of_asc_node": 253.1798,
        "meta_arg_of_pericenter": 81.3371,
        "meta_mean_anomaly": 278.7977,
        "meta_ephemeris_type": 0,
        "meta_classification_type": "U",
        "meta_norad_cat_id": 41875,
        "meta_element_set_no": 999,
        "meta_rev_at_epoch": 48365,
        "meta_bstar": 0.00014990765,
        "meta_mean_motion_dot": 7.18e-06,
        "meta_mean_motion_ddot": 0,
        "tle_line1": "1 41875U 16073A   25361.00438881  .00000718  00000+0  14991-3 0  9993",
        "tle_line2": "2 41875  98.1422 253.1798 0001295  81.3371 278.7977 14.62796567483654"
      },
      "geometry": {
        "type": "Point",
        "coordinates": [
          -75.28932182838382,
          -74.61107703251838
        ]
      }
    },
    {
      "type": "Feature",
      "properties": {
        "norad_id": 41877,
        "name": "RESOURCESAT-2A",
        "group": "resource",
        "lat": -7.554160388128995,
        "lon": 72.13876743384778,
        "alt_km": 824.9090852218706,
        "timestamp": "2025-12-27T04:40:45.157569+00:00",
        "meta_object_name": "RESOURCESAT-2A",
        "meta_object_id": "2016-074A",
        "meta_epoch": "2025-12-26T21:57:30.062592",
        "meta_mean_motion": 14.21605079,
        "meta_eccentricity": 0.00016957,
        "meta_inclination": 98.7733,
        "meta_ra_of_asc_node": 70.687,
        "meta_arg_of_pericenter": 194.9389,
        "meta_mean_anomaly": 165.1739,
        "meta_ephemeris_type": 0,
        "meta_classification_type": "U",
        "meta_norad_cat_id": 41877,
        "meta_element_set_no": 999,
        "meta_rev_at_epoch": 46982,
        "meta_bstar": 2.9773257e-05,
        "meta_mean_motion_dot": 2.1e-07,
        "meta_mean_motion_ddot": 0,
        "tle_line1": "1 41877U 16074A   25360.91493128  .00000021  00000+0  29773-4 0  9992",
        "tle_line2": "2 41877  98.7733  70.6870 0001695 194.9389 165.1739 14.21605079469824"
      },
      "geometry": {
        "type": "Point",
        "coordinates": [
          72.13876743384778,
          -7.554160388128995
        ]
      }
    }
  ]
}